[
    {
        "Altitude(m)": 717861.8015716362,
        "Argument of Periapsis(deg)": 0.005695060593313534,
        "Eccentricity": 0.0,
        "Inclination(deg)": 45.0,
        "Latitude(deg)": -45.10355358943523,
        "Longitude(deg)": 146.22921248862457,
        "Mean Anomaly(deg)": -92.4151916762596,
        "RAAN(deg)": 339.99462402927094,
        "Satellite Name": "Constellation 1 1512",
        "Satellite Number": 1512,
        "Semi-Major Axis(m)": 7083131.272910544,
        "Time(s)": 95
    },
    {
        "Altitude(m)": 717862.8271628562,
        "Argument of Periapsis(deg)": 0.00575500859955894,
        "Eccentricity": 0.0,
        "Inclination(deg)": 45.0,
        "Latitude(deg)": -45.10606420194168,
        "Longitude(deg)": 146.31059412662546,
        "Mean Anomaly(deg)": -92.35449053600972,
        "RAAN(deg)": 339.99456744010536,
        "Satellite Name": "Constellation 1 1512",
        "Satellite Number": 1512,
        "Semi-Major Axis(m)": 7083131.272910544,
        "Time(s)": 96
    },
    {
        "Altitude(m)": 717863.8264197434,
        "Argument of Periapsis(deg)": 0.005814956605804345,
        "Eccentricity": 0.0,
        "Inclination(deg)": 45.0,
        "Latitude(deg)": -45.108510840574546,
        "Longitude(deg)": 146.3919833164345,
        "Mean Anomaly(deg)": -92.29378939575977,
        "RAAN(deg)": 339.9945108509398,
        "Satellite Name": "Constellation 1 1512",
        "Satellite Number": 1512,
        "Semi-Major Axis(m)": 7083131.272910544,
        "Time(s)": 97
    },
    {
        "Altitude(m)": 717864.7993385937,
        "Argument of Periapsis(deg)": 0.00587490461204975,
        "Eccentricity": 0.0,
        "Inclination(deg)": 45.0,
        "Latitude(deg)": -45.11089349453783,
        "Longitude(deg)": 146.4733797005993,
        "Mean Anomaly(deg)": -92.23308825550984,
        "RAAN(deg)": 339.99445426177425,
        "Satellite Name": "Constellation 1 1512",
        "Satellite Number": 1512,
        "Semi-Major Axis(m)": 7083131.272910544,
        "Time(s)": 98
    },
    {
        "Altitude(m)": 717865.7459157833,
        "Argument of Periapsis(deg)": 0.005934852618295156,
        "Eccentricity": 0.0,
        "Inclination(deg)": 45.0,
        "Latitude(deg)": -45.113212153315764,
        "Longitude(deg)": 146.55478308963615,
        "Mean Anomaly(deg)": -92.17238711526007,
        "RAAN(deg)": 339.9943976726086,
        "Satellite Name": "Constellation 1 1512",
        "Satellite Number": 1512,
        "Semi-Major Axis(m)": 7083131.272910544,
        "Time(s)": 99
    },
    {
        "Altitude(m)": 717866.6661478087,
        "Argument of Periapsis(deg)": 0.005994800624540561,
        "Eccentricity": 0.0,
        "Inclination(deg)": 45.0,
        "Latitude(deg)": -45.115466806673055,
        "Longitude(deg)": 146.6361932939374,
        "Mean Anomaly(deg)": -92.11168597501008,
        "RAAN(deg)": 339.99434108344303,
        "Satellite Name": "Constellation 1 1512",
        "Satellite Number": 1512,
        "Semi-Major Axis(m)": 7083131.272910544,
        "Time(s)": 100
    },
    {
        "Altitude(m)": 717867.5600312458,
        "Argument of Periapsis(deg)": 0.006054748630785968,
        "Eccentricity": 0.0,
        "Inclination(deg)": 45.0,
        "Latitude(deg)": -45.117657444654874,
        "Longitude(deg)": 146.71761012377326,
        "Mean Anomaly(deg)": -92.05098483476014,
        "RAAN(deg)": 339.9942844942775,
        "Satellite Name": "Constellation 1 1512",
        "Satellite Number": 1512,
        "Semi-Major Axis(m)": 7083131.272910544,
        "Time(s)": 101
    },
    {
        "Altitude(m)": 717868.4275627707,
        "Argument of Periapsis(deg)": 0.006114696637031373,
        "Eccentricity": 0.0,
        "Inclination(deg)": 45.0,
        "Latitude(deg)": -45.11978405758713,
        "Longitude(deg)": 146.79903338929577,
        "Mean Anomaly(deg)": -91.9902836945103,
        "RAAN(deg)": 339.9942279051119,
        "Satellite Name": "Constellation 1 1512",
        "Satellite Number": 1512,
        "Semi-Major Axis(m)": 7083131.272910544,
        "Time(s)": 102
    },
    {
        "Altitude(m)": 717869.2687391641,
        "Argument of Periapsis(deg)": 0.006174644643276778,
        "Eccentricity": 0.0,
        "Inclination(deg)": 45.0,
        "Latitude(deg)": -45.12184663607674,
        "Longitude(deg)": 146.88046290054277,
        "Mean Anomaly(deg)": -91.92958255426042,
        "RAAN(deg)": 339.9941713159464,
        "Satellite Name": "Constellation 1 1512",
        "Satellite Number": 1512,
        "Semi-Major Axis(m)": 7083131.272910544,
        "Time(s)": 103
    },
    {
        "Altitude(m)": 717870.0835572943,
        "Argument of Periapsis(deg)": 0.006234592649522184,
        "Eccentricity": 0.0,
        "Inclination(deg)": 45.0,
        "Latitude(deg)": -45.12384517101152,
        "Longitude(deg)": 146.96189829934363,
        "Mean Anomaly(deg)": -91.86888141401043,
        "RAAN(deg)": 339.99411472678077,
        "Satellite Name": "Constellation 1 1512",
        "Satellite Number": 1512,
        "Semi-Major Axis(m)": 7083131.272910544,
        "Time(s)": 104
    },
    {
        "Altitude(m)": 717870.8720141354,
        "Argument of Periapsis(deg)": 0.00629454065576759,
        "Eccentricity": 0.0,
        "Inclination(deg)": 45.0,
        "Latitude(deg)": -45.12577965356133,
        "Longitude(deg)": 147.04333973170998,
        "Mean Anomaly(deg)": -91.8081802737606,
        "RAAN(deg)": 339.9940581376152,
        "Satellite Name": "Constellation 1 1512",
        "Satellite Number": 1512,
        "Semi-Major Axis(m)": 7083131.272910544,
        "Time(s)": 105
    },
    {
        "Altitude(m)": 717871.6341067558,
        "Argument of Periapsis(deg)": 0.006354488662012995,
        "Eccentricity": 0.0,
        "Inclination(deg)": 45.0,
        "Latitude(deg)": -45.127650075176916,
        "Longitude(deg)": 147.12478683925866,
        "Mean Anomaly(deg)": -91.74747913351077,
        "RAAN(deg)": 339.99400154844966,
        "Satellite Name": "Constellation 1 1512",
        "Satellite Number": 1512,
        "Semi-Major Axis(m)": 7083131.272910544,
        "Time(s)": 106
    },
    {
        "Altitude(m)": 717872.369832324,
        "Argument of Periapsis(deg)": 0.006414436668258401,
        "Eccentricity": 0.0,
        "Inclination(deg)": 45.0,
        "Latitude(deg)": -45.12945642759086,
        "Longitude(deg)": 147.2062394316021,
        "Mean Anomaly(deg)": -91.68677799326076,
        "RAAN(deg)": 339.9939449592841,
        "Satellite Name": "Constellation 1 1512",
        "Satellite Number": 1512,
        "Semi-Major Axis(m)": 7083131.272910544,
        "Time(s)": 107
    },
    {
        "Altitude(m)": 717873.0791880965,
        "Argument of Periapsis(deg)": 0.0064743846745038075,
        "Eccentricity": 0.0,
        "Inclination(deg)": 45.0,
        "Latitude(deg)": -45.13119870281774,
        "Longitude(deg)": 147.28769731825452,
        "Mean Anomaly(deg)": -91.62607685301083,
        "RAAN(deg)": 339.99388837011855,
        "Satellite Name": "Constellation 1 1512",
        "Satellite Number": 1512,
        "Semi-Major Axis(m)": 7083131.272910544,
        "Time(s)": 108
    },
    {
        "Altitude(m)": 717873.762171436,
        "Argument of Periapsis(deg)": 0.0065343326807492125,
        "Eccentricity": 0.0,
        "Inclination(deg)": 45.0,
        "Latitude(deg)": -45.13287689315424,
        "Longitude(deg)": 147.36916030863546,
        "Mean Anomaly(deg)": -91.56537571276098,
        "RAAN(deg)": 339.993831780953,
        "Satellite Name": "Constellation 1 1512",
        "Satellite Number": 1512,
        "Semi-Major Axis(m)": 7083131.272910544,
        "Time(s)": 109
    },
    {
        "Altitude(m)": 717874.4187798002,
        "Argument of Periapsis(deg)": 0.0065942806869946176,
        "Eccentricity": 0.0,
        "Inclination(deg)": 45.0,
        "Latitude(deg)": -45.134490991179085,
        "Longitude(deg)": 147.45062821207384,
        "Mean Anomaly(deg)": -91.50467457251105,
        "RAAN(deg)": 339.99377519178734,
        "Satellite Name": "Constellation 1 1512",
        "Satellite Number": 1512,
        "Semi-Major Axis(m)": 7083131.272910544,
        "Time(s)": 110
    },
    {
        "Altitude(m)": 717875.0490107428,
        "Argument of Periapsis(deg)": 0.006654228693240024,
        "Eccentricity": 0.0,
        "Inclination(deg)": 45.0,
        "Latitude(deg)": -45.13604098975332,
        "Longitude(deg)": 147.5321006697137,
        "Mean Anomaly(deg)": -91.44397343226122,
        "RAAN(deg)": 339.9937186026218,
        "Satellite Name": "Constellation 1 1512",
        "Satellite Number": 1512,
        "Semi-Major Axis(m)": 7083131.272910544,
        "Time(s)": 111
    },
    {
        "Altitude(m)": 717875.6528619218,
        "Argument of Periapsis(deg)": 0.006714176699485429,
        "Eccentricity": 0.0,
        "Inclination(deg)": 45.0,
        "Latitude(deg)": -45.137526882021184,
        "Longitude(deg)": 147.61357782690547,
        "Mean Anomaly(deg)": -91.38327229201128,
        "RAAN(deg)": 339.99366201345623,
        "Satellite Name": "Constellation 1 1512",
        "Satellite Number": 1512,
        "Semi-Major Axis(m)": 7083131.272910544,
        "Time(s)": 112
    },
    {
        "Altitude(m)": 717876.2303310805,
        "Argument of Periapsis(deg)": 0.006774124705730835,
        "Eccentricity": 0.0,
        "Inclination(deg)": 45.0,
        "Latitude(deg)": -45.13894866140882,
        "Longitude(deg)": 147.69505932462752,
        "Mean Anomaly(deg)": -91.32257115176145,
        "RAAN(deg)": 339.9936054242907,
        "Satellite Name": "Constellation 1 1512",
        "Satellite Number": 1512,
        "Semi-Major Axis(m)": 7083131.272910544,
        "Time(s)": 113
    }
]